$$SOE
2461288.500000000, A.D. 2026-Sep-05 00:00:00.0000, -3.328941877714878E+08, 2.900716461024849E+08, 7.889045651243313E+07,
2461295.500000000, A.D. 2026-Sep-12 00:00:00.0000, -3.405348177628371E+08, 2.830098430728091E+08, 7.845510058172169E+07,
2461302.500000000, A.D. 2026-Sep-19 00:00:00.0000, -3.479937790708311E+08, 2.757971966325712E+08, 7.797780013846773E+07,
2461309.500000000, A.D. 2026-Sep-26 00:00:00.0000, -3.552684989889368E+08, 2.684386725498021E+08, 7.745912755195063E+07,
2461316.500000000, A.D. 2026-Oct-03 00:00:00.0000, -3.623565436808519E+08, 2.609392405719127E+08, 7.689966917763436E+07,
2461323.500000000, A.D. 2026-Oct-10 00:00:00.0000, -3.692556157154065E+08, 2.533038710370455E+08, 7.630002453963606E+07,
2461330.500000000, A.D. 2026-Oct-17 00:00:00.0000, -3.759635515853048E+08, 2.455375315967390E+08, 7.566080553492871E+07,
2461337.500000000, A.D. 2026-Oct-24 00:00:00.0000, -3.824783191945994E+08, 2.376451840230433E+08, 7.498263565560250E+07,
2461344.500000000, A.D. 2026-Oct-31 00:00:00.0000, -3.887980152248474E+08, 2.296317810288946E+08, 7.426614921500723E+07,
2461351.500000000, A.D. 2026-Nov-07 00:00:00.0000, -3.949208620489965E+08, 2.215022631709938E+08, 7.351199055297869E+07,
2461358.500000000, A.D. 2026-Nov-14 00:00:00.0000, -4.008452039997707E+08, 2.132615567173004E+08, 7.272081327441674E+07,
2461365.500000000, A.D. 2026-Nov-21 00:00:00.0000, -4.065695048123959E+08, 2.049145731555810E+08, 7.189327974337929E+07,
2461372.500000000, A.D. 2026-Nov-28 00:00:00.0000, -4.120923472481863E+08, 1.964662073307548E+08, 7.103006067890826E+07,
2461379.500000000, A.D. 2026-Dec-05 00:00:00.0000, -4.174124312848332E+08, 1.879213335506017E+08, 7.013183446703884E+07,
2461386.500000000, A.D. 2026-Dec-12 00:00:00.0000, -4.225285707124745E+08, 1.792848027640531E+08, 6.919928642768145E+07,
2461393.500000000, A.D. 2026-Dec-19 00:00:00.0000, -4.274396900296147E+08, 1.705614408120306E+08, 6.823310821003133E+07,
2461400.500000000, A.D. 2026-Dec-26 00:00:00.0000, -4.321448217880914E+08, 1.617560468784279E+08, 6.723399725884154E+07,
2461407.500000000, A.D. 2027-Jan-02 00:00:00.0000, -4.366431041161699E+08, 1.528733919461031E+08, 6.620265631047981E+07,
2461414.500000000, A.D. 2027-Jan-09 00:00:00.0000, -4.409337783066822E+08, 1.439182172732486E+08, 6.513979290915261E+07,
2461421.500000000, A.D. 2027-Jan-16 00:00:00.0000, -4.450161864382169E+08, 1.348952328936126E+08, 6.404611893997727E+07,
2461428.500000000, A.D. 2027-Jan-23 00:00:00.0000, -4.488897689865253E+08, 1.258091160948829E+08, 6.292235017050552E+07,
2461435.500000000, A.D. 2027-Jan-30 00:00:00.0000, -4.525540622420245E+08, 1.166645098207335E+08, 6.176920577870287E+07,
2461442.500000000, A.D. 2027-Feb-06 00:00:00.0000, -4.560086951132116E+08, 1.074660213298203E+08, 6.058740785557809E+07,
2461449.500000000, A.D. 2027-Feb-13 00:00:00.0000, -4.592533857816572E+08, 9.821822232531244E+07, 5.937768102393319E+07,
2461456.500000000, A.D. 2027-Feb-20 00:00:00.0000, -4.622879405785025E+08, 8.892564975906032E+07, 5.814075232507906E+07,
2461463.500000000, A.D. 2027-Feb-27 00:00:00.0000, -4.651122536919768E+08, 7.959280409384853E+07, 5.687735098249917E+07,
2461470.500000000, A.D. 2027-Mar-06 00:00:00.0000, -4.677263046891423E+08, 7.022414694404906E+07, 5.558820792185104E+07,
2461477.500000000, A.D. 2027-Mar-13 00:00:00.0000, -4.701301554510235E+08, 6.082410013962585E+07, 5.427405536017500E+07,
2461484.500000000, A.D. 2027-Mar-20 00:00:00.0000, -4.723239476511257E+08, 5.139704537337409E+07, 5.293562649853014E+07,
2461491.500000000, A.D. 2027-Mar-27 00:00:00.0000, -4.743079005766006E+08, 4.194732387780876E+07, 5.157365525381748E+07,
2461498.500000000, A.D. 2027-Apr-03 00:00:00.0000, -4.760823090898017E+08, 3.247923607961833E+07, 5.018887600652945E+07,
2461505.500000000, A.D. 2027-Apr-10 00:00:00.0000, -4.776475416694479E+08, 2.299704125029957E+07, 4.878202336004212E+07,
2461512.500000000, A.D. 2027-Apr-17 00:00:00.0000, -4.790040385099815E+08, 1.350495713438488E+07, 4.735383190771817E+07,
2461519.500000000, A.D. 2027-Apr-24 00:00:00.0000, -4.801523096006538E+08, 4.007159489232114E+06, 4.590503599500065E+07,
2461526.500000000, A.D. 2027-May-01 00:00:00.0000, -4.810929324852297E+08, -5.492218439254679E+06, 4.443636945081045E+07,
2461533.500000000, A.D. 2027-May-08 00:00:00.0000, -4.818265493949161E+08, -1.498908575978503E+07, 4.294856532067935E+07,
2461540.500000000, A.D. 2027-May-15 00:00:00.0000, -4.823538652510502E+08, -2.447939214769144E+07, 4.144235581622910E+07,
2461547.500000000, A.D. 2027-May-22 00:00:00.0000, -4.826756481019338E+08, -3.395912702099982E+07, 3.991847241210127E+07,
2461554.500000000, A.D. 2027-May-29 00:00:00.0000, -4.827927286389117E+08, -4.342432115139332E+07, 3.837764566218253E+07,
2461561.500000000, A.D. 2027-Jun-05 00:00:00.0000, -4.827059979056929E+08, -5.287104758012200E+07, 3.682060490943804E+07,
2461568.500000000, A.D. 2027-Jun-12 00:00:00.0000, -4.824164052062567E+08, -6.229542141004916E+07, 3.524807810816420E+07,
2461575.500000000, A.D. 2027-Jun-19 00:00:00.0000, -4.819249565416994E+08, -7.169359941248575E+07, 3.366079171215525E+07,
2461582.500000000, A.D. 2027-Jun-26 00:00:00.0000, -4.812327132967902E+08, -8.106177971307817E+07, 3.205947058152231E+07,
2461589.500000000, A.D. 2027-Jul-03 00:00:00.0000, -4.803407910438968E+08, -9.039620155079034E+07, 3.044483789650165E+07,
2461596.500000000, A.D. 2027-Jul-10 00:00:00.0000, -4.792503584267553E+08, -9.969314510350025E+07, 2.881761507536537E+07,
2461603.500000000, A.D. 2027-Jul-17 00:00:00.0000, -4.779626360869060E+08, -1.089489314213635E+08, 2.717852168971760E+07,
2461610.500000000, A.D. 2027-Jul-24 00:00:00.0000, -4.764788954755530E+08, -1.181599225330055E+08, 2.552827535749736E+07,
2461617.500000000, A.D. 2027-Jul-31 00:00:00.0000, -4.748004571385534E+08, -1.273225214911638E+08, 2.386759159500023E+07,
2461624.500000000, A.D. 2027-Aug-07 00:00:00.0000, -4.729286886741356E+08, -1.364331712081195E+08, 2.219718374020227E+07,
2461631.500000000, A.D. 2027-Aug-14 00:00:00.0000, -4.708650046633922E+08, -1.454883523366449E+08, 2.051776313739759E+07,
2461638.500000000, A.D. 2027-Aug-21 00:00:00.0000, -4.686108679555073E+08, -1.544845835633882E+08, 1.883003925114102E+07,
2461645.500000000, A.D. 2027-Aug-28 00:00:00.0000, -4.661677888774025E+08, -1.634184231131243E+08, 1.713471949280762E+07,
2461652.500000000, A.D. 2027-Sep-04 00:00:00.0000, -4.635373235480173E+08, -1.722864689620951E+08, 1.543250907214476E+07,
2461659.500000000, A.D. 2027-Sep-11 00:00:00.0000, -4.607210726906210E+08, -1.810853584226729E+08, 1.372411094712123E+07,
2461666.500000000, A.D. 2027-Sep-18 00:00:00.0000, -4.577206808084798E+08, -1.898117677507830E+08, 1.201022580605078E+07,
2461673.500000000, A.D. 2027-Sep-25 00:00:00.0000, -4.545378354936420E+08, -1.984624118546244E+08, 1.029155205403392E+07,
2461680.500000000, A.D. 2027-Oct-02 00:00:00.0000, -4.511742667919133E+08, -2.070340440779391E+08, 8.568785798527047E+06,
2461687.500000000, A.D. 2027-Oct-09 00:00:00.0000, -4.476317465995576E+08, -2.155234560637121E+08, 6.842620831091955E+06,
2461694.500000000, A.D. 2027-Oct-16 00:00:00.0000, -4.439120880272602E+08, -2.239274777551593E+08, 5.113748594555289E+06,
2461701.500000000, A.D. 2027-Oct-23 00:00:00.0000, -4.400171444711887E+08, -2.322429775416568E+08, 3.382858110811293E+06,
2461708.500000000, A.D. 2027-Oct-30 00:00:00.0000, -4.359488080165651E+08, -2.404668619405796E+08, 1.650635884350926E+06,
2461715.500000000, A.D. 2027-Nov-06 00:00:00.0000, -4.317090083368106E+08, -2.485960736875291E+08, -8.223401997599006E+04,
2461722.500000000, A.D. 2027-Nov-13 00:00:00.0000, -4.272997140728511E+08, -2.566275903119774E+08, -1.815069712952062E+06,
2461729.500000000, A.D. 2027-Nov-20 00:00:00.0000, -4.227229337905624E+08, -2.645584253855314E+08, -3.547191475884676E+06,
2461736.500000000, A.D. 2027-Nov-27 00:00:00.0000, -4.179807148986834E+08, -2.723856294789135E+08, -5.277921920699731E+06,
2461743.500000000, A.D. 2027-Dec-04 00:00:00.0000, -4.130751425493242E+08, -2.801062899136333E+08, -7.006586055091813E+06,
2461750.500000000, A.D. 2027-Dec-11 00:00:00.0000, -4.080083390696372E+08, -2.877175302727841E+08, -8.732511281183645E+06,
2461757.500000000, A.D. 2027-Dec-18 00:00:00.0000, -4.027824636481685E+08, -2.952165100112758E+08, -1.045502738083202E+07,
2461764.500000000, A.D. 2027-Dec-25 00:00:00.0000, -3.973997121231024E+08, -3.026004241690264E+08, -1.217346650189292E+07,
2461771.500000000, A.D. 2028-Jan-01 00:00:00.0000, -3.918623168304390E+08, -3.098665031735943E+08, -1.388716314819366E+07,
$$EOE